[{"OBJECT_NAME":"STARLINK-2266","OBJECT_ID":"2021-024W","EPOCH":"2026-03-09T22:41:07.759680","MEAN_MOTION":15.30173039,"ECCENTRICITY":9.263e-5,"INCLINATION":53.157,"RA_OF_ASC_NODE":305.5637,"ARG_OF_PERICENTER":78.9205,"MEAN_ANOMALY":281.19,"EPHEMERIS_TYPE":0,"CLASSIFICATION_TYPE":"U","NORAD_CAT_ID":47997,"ELEMENT_SET_NO":999,"REV_AT_EPOCH":27502,"BSTAR":-0.00021735375,"MEAN_MOTION_DOT":-6.785e-5,"MEAN_MOTION_DDOT":0},{"OBJECT_NAME":"SCS-01 M","OBJECT_ID":"2025-100M","EPOCH":"2026-03-09T23:50:15.541152","MEAN_MOTION":15.31880861,"ECCENTRICITY":0.00078021,"INCLINATION":97.3725,"RA_OF_ASC_NODE":145.6908,"ARG_OF_PERICENTER":292.3826,"MEAN_ANOMALY":67.6588,"EPHEMERIS_TYPE":0,"CLASSIFICATION_TYPE":"U","NORAD_CAT_ID":63993,"ELEMENT_SET_NO":999,"REV_AT_EPOCH":4565,"BSTAR":0.0012010051,"MEAN_MOTION_DOT":0.00037061,"MEAN_MOTION_DDOT":0}]
